{
    "links": {
        "self": "http://www.neowsapp.com/rest/v1/neo/3698843?api_key=iIulBulltgU6a56xZRHN4H3l9WmuAYTsLGpBGhQ2"
    },
    "id": "3698843",
    "neo_reference_id": "3698843",
    "name": "(2014 WR202)",
    "designation": "2014 WR202",
    "nasa_jpl_url": "http://ssd.jpl.nasa.gov/sbdb.cgi?sstr=3698843",
    "absolute_magnitude_h": 25.7,
    "estimated_diameter": {
        "kilometers": {
            "estimated_diameter_min": 0.0192555078,
            "estimated_diameter_max": 0.0430566244
        },
        "meters": {
            "estimated_diameter_min": 19.2555078188,
            "estimated_diameter_max": 43.0566244241
        },
        "miles": {
            "estimated_diameter_min": 0.0119648141,
            "estimated_diameter_max": 0.0267541378
        },
        "feet": {
            "estimated_diameter_min": 63.1742402722,
            "estimated_diameter_max": 141.2618956756
        }
    },
    "is_potentially_hazardous_asteroid": false,
    "close_approach_data": [
        {
            "close_approach_date": "2014-11-23",
            "close_approach_date_full": "2014-Nov-23 17:11",
            "epoch_date_close_approach": 1416762660000,
            "relative_velocity": {
                "kilometers_per_second": "9.2431512546",
                "kilometers_per_hour": "33275.3445164727",
                "miles_per_hour": "20676.0050413605"
            },
            "miss_distance": {
                "astronomical": "0.0895494473",
                "lunar": "34.8347349997",
                "kilometers": "13396406.575757251",
                "miles": "8324141.0506260238"
            },
            "orbiting_body": "Earth"
        }
    ],
    "orbital_data": {
        "orbit_id": "4",
        "orbit_determination_date": "2019-07-17 06:10:22",
        "first_observation_date": "2014-11-20",
        "last_observation_date": "2014-11-26",
        "data_arc_in_days": 6,
        "observations_used": 20,
        "orbit_uncertainty": "8",
        "minimum_orbit_intersection": ".0892896",
        "jupiter_tisserand_invariant": "4.436",
        "epoch_osculation": "2456983.5",
        "eccentricity": ".2880395058382322",
        "semi_major_axis": "1.510053685132764",
        "inclination": "16.37549246557528",
        "ascending_node_longitude": "60.01164847887665",
        "orbital_period": "677.7772823968119",
        "perihelion_distance": "1.075098567877921",
        "perihelion_argument": "7.554128116278044",
        "aphelion_distance": "1.945008802387606",
        "perihelion_time": "2456991.927295282362",
        "mean_anomaly": "355.5238595620646",
        "mean_motion": ".5311479291942898",
        "equinox": "J2000",
        "orbit_class": {
            "orbit_class_type": "AMO",
            "orbit_class_description": "Near-Earth asteroid orbits similar to that of 1221 Amor",
            "orbit_class_range": "1.017 AU < q (perihelion) < 1.3 AU"
        }
    },
    "is_sentry_object": false
}